{"fetched_at":"2026-03-29T16:36:15Z","count":15609,"tles":[{"name":"STARLINK-30508","line1":"1 57979U 23151R   26087.85872778  .00003377  00000+0  13213-3 0  9996","line2":"2 57979  43.0001 242.5350 0001149 275.9534  84.1186 15.27589654138527","category":"Starlink"}]}